[{"OBJECT_NAME":"FORMOSAT 7-3","OBJECT_ID":"2019-036E","EPOCH":"2026-03-09T19:49:52.754592","MEAN_MOTION":15.08933962,"ECCENTRICITY":0.00010606,"INCLINATION":23.9981,"RA_OF_ASC_NODE":141.9797,"ARG_OF_PERICENTER":150.4425,"MEAN_ANOMALY":209.6139,"EPHEMERIS_TYPE":0,"CLASSIFICATION_TYPE":"U","NORAD_CAT_ID":44343,"ELEMENT_SET_NO":999,"REV_AT_EPOCH":36821,"BSTAR":0.00037650049,"MEAN_MOTION_DOT":6.445e-5,"MEAN_MOTION_DDOT":0},{"OBJECT_NAME":"STARLINK-3180","OBJECT_ID":"2022-005AK","EPOCH":"2026-03-09T21:57:57.148992","MEAN_MOTION":15.0882725,"ECCENTRICITY":0.00011965,"INCLINATION":53.2175,"RA_OF_ASC_NODE":298.107,"ARG_OF_PERICENTER":82.1941,"MEAN_ANOMALY":277.9187,"EPHEMERIS_TYPE":0,"CLASSIFICATION_TYPE":"U","NORAD_CAT_ID":51137,"ELEMENT_SET_NO":999,"REV_AT_EPOCH":22877,"BSTAR":0.00012569288,"MEAN_MOTION_DOT":1.712e-5,"MEAN_MOTION_DDOT":0}]
